[{"OBJECT_NAME":"TIANHUI 6B","OBJECT_ID":"2023-030D","EPOCH":"2026-03-09T23:26:56.388192","MEAN_MOTION":14.01332355,"ECCENTRICITY":0.00011349,"INCLINATION":99.0142,"RA_OF_ASC_NODE":78.4435,"ARG_OF_PERICENTER":126.6393,"MEAN_ANOMALY":233.4876,"EPHEMERIS_TYPE":0,"CLASSIFICATION_TYPE":"U","NORAD_CAT_ID":55839,"ELEMENT_SET_NO":999,"REV_AT_EPOCH":15349,"BSTAR":-9.0839833e-5,"MEAN_MOTION_DOT":-1.81e-6,"MEAN_MOTION_DDOT":0},{"OBJECT_NAME":"SL-14 DEB","OBJECT_ID":"1987-068DC","EPOCH":"2026-02-13T07:40:31.873440","MEAN_MOTION":14.03772744,"ECCENTRICITY":0.00105428,"INCLINATION":82.5437,"RA_OF_ASC_NODE":260.128,"ARG_OF_PERICENTER":345.0282,"MEAN_ANOMALY":15.0576,"EPHEMERIS_TYPE":0,"CLASSIFICATION_TYPE":"U","NORAD_CAT_ID":39976,"ELEMENT_SET_NO":999,"REV_AT_EPOCH":11481,"BSTAR":0.00078801718,"MEAN_MOTION_DOT":1.256e-5,"MEAN_MOTION_DDOT":0}]
